{
    "links": {
        "self": "http://www.neowsapp.com/rest/v1/neo/3703075?api_key=iIulBulltgU6a56xZRHN4H3l9WmuAYTsLGpBGhQ2"
    },
    "id": "3703075",
    "neo_reference_id": "3703075",
    "name": "(2014 YP34)",
    "designation": "2014 YP34",
    "nasa_jpl_url": "http://ssd.jpl.nasa.gov/sbdb.cgi?sstr=3703075",
    "absolute_magnitude_h": 26.1,
    "estimated_diameter": {
        "kilometers": {
            "estimated_diameter_min": 0.0160160338,
            "estimated_diameter_max": 0.0358129403
        },
        "meters": {
            "estimated_diameter_min": 16.0160337979,
            "estimated_diameter_max": 35.8129403019
        },
        "miles": {
            "estimated_diameter_min": 0.0099518989,
            "estimated_diameter_max": 0.0222531225
        },
        "feet": {
            "estimated_diameter_min": 52.5460443254,
            "estimated_diameter_max": 117.4965270602
        }
    },
    "is_potentially_hazardous_asteroid": false,
    "close_approach_data": [
        {
            "close_approach_date": "1920-11-22",
            "close_approach_date_full": "1920-Nov-22 07:08",
            "epoch_date_close_approach": -1549731120000,
            "relative_velocity": {
                "kilometers_per_second": "20.4228138903",
                "kilometers_per_hour": "73522.1300051858",
                "miles_per_hour": "45683.7923912778"
            },
            "miss_distance": {
                "astronomical": "0.4720631977",
                "lunar": "183.6325839053",
                "kilometers": "70619648.881308899",
                "miles": "43881015.0251408462"
            },
            "orbiting_body": "Earth"
        },
        {
            "close_approach_date": "2015-01-04",
            "close_approach_date_full": "2015-Jan-04 10:03",
            "epoch_date_close_approach": 1420365780000,
            "relative_velocity": {
                "kilometers_per_second": "6.8775473132",
                "kilometers_per_hour": "24759.1703273614",
                "miles_per_hour": "15384.3855847985"
            },
            "miss_distance": {
                "astronomical": "0.0224943549",
                "lunar": "8.7503040561",
                "kilometers": "3365107.580064063",
                "miles": "2090980.8901795494"
            },
            "orbiting_body": "Earth"
        }
    ],
    "orbital_data": {
        "orbit_id": "9",
        "orbit_determination_date": "2017-04-06 08:36:40",
        "first_observation_date": "2014-12-28",
        "last_observation_date": "2015-01-04",
        "data_arc_in_days": 7,
        "observations_used": 33,
        "orbit_uncertainty": "7",
        "minimum_orbit_intersection": ".0225339",
        "jupiter_tisserand_invariant": "4.155",
        "epoch_osculation": "2459000.5",
        "eccentricity": ".4075599435216493",
        "semi_major_axis": "1.662315945745174",
        "inclination": "6.691285561856758",
        "ascending_node_longitude": "95.37031777988885",
        "orbital_period": "782.8323840554006",
        "perihelion_distance": ".984822552782134",
        "perihelion_argument": "26.04295457449257",
        "aphelion_distance": "2.339809338708214",
        "perihelion_time": "2459390.189589546313",
        "mean_anomaly": "180.7940101942123",
        "mean_motion": ".4598685584965824",
        "equinox": "J2000",
        "orbit_class": {
            "orbit_class_type": "APO",
            "orbit_class_description": "Near-Earth asteroid orbits which cross the Earth’s orbit similar to that of 1862 Apollo",
            "orbit_class_range": "a (semi-major axis) > 1.0 AU; q (perihelion) < 1.017 AU"
        }
    },
    "is_sentry_object": false
}